ONEWEB-0451             
1 51643U 22012X   24053.88687148  .00000019  00000+0  16115-4 0  9997
2 51643  87.9253 173.9873 0001919 104.5118 255.6227 13.17649799102348
ONEWEB-0452             
1 51644U 22012Y   24053.88529372 -.00000126  00000+0 -35880-3 0  9992
2 51644  87.9261 174.0208 0002112 111.3284 248.8073 13.17649869103654
ONEWEB-0455             
1 51645U 22012Z   24054.33151045  .00000388  00000+0  16531-3 0  9992
2 51645  87.5382 150.2862 0016903   7.1686 352.9743 14.22738803107253
ONEWEB-0456             
1 51646U 22012AA  24053.91273984 -.00000451  00000+0 -13279-2 0  9991
2 51646  87.8938 204.1682 0001378  89.2399 270.8886 13.10375459 99936
ONEWEB-0457             
1 51647U 22012AB  24053.89000030 -.00000306  00000+0 -91263-3 0  9998
2 51647  87.8940 204.1850 0001731 115.2981 244.8326 13.10369995 98642
ONEWEB-0458             
1 51648U 22012AC  24053.91111585 -.00000602  00000+0 -17609-2 0  9990
2 51648  87.8948 204.1947 0001773 100.4903 259.6424 13.10374970 98602
ONEWEB-0461             
1 51649U 22012AD  24053.83150612  .00000009  00000+0 -98238-5 0  9996
2 51649  87.9254 174.0041 0001619 110.3352 249.7954 13.17649918102564
ONEWEB-0463             
1 51650U 22012AE  24053.89003518  .00000012  00000+0 -19037-5 0  9990
2 51650  87.9260 174.0348 0001734 110.1882 249.9437 13.17649570103650
ONEWEB-0464             
1 51651U 22012AF  24053.90786668 -.00000579  00000+0 -16938-2 0  9990
2 51651  87.8948 204.1846 0001578  85.2978 274.8329 13.10375156 99925
ONEWEB-0468             
1 51652U 22012AG  24054.44886864 -.00000475  00000+0 -13972-2 0  9990
2 51652  87.8947 204.0701 0001591  97.8449 262.2859 13.10375186 99967
ONEWEB-0473             
1 51653U 22012AH  24054.43424892  .00000025  00000+0  35303-4 0  9992
2 51653  87.8943 204.0772 0001702  98.5085 261.6235 13.10370338 99976
ONEWEB-0474             
1 51654U 22012AJ  24053.96798199 -.00000305  00000+0 -91050-3 0  9997
2 51654  87.8932 204.1766 0001784  93.9816 266.1516 13.10370286 99895
ONEWEB-0475             
1 51655U 22012AK  24054.35671935 -.00001960  00000+0 -50832-2 0  9990
2 51655  87.9259 173.9217 0002092  96.9972 263.1397 13.17651991103726
ONEWEB-0490             
1 54113U 22138A   24054.45968515  .00000039  00000+0  65326-4 0  9995
2 54113  87.9148 113.1301 0001953  94.6710 265.4646 13.19726557 66289
ONEWEB-0492             
1 54114U 22138B   24054.40914389  .00000049  00000+0  89056-4 0  9998
2 54114  87.9156 113.1368 0001971  88.9261 271.2098 13.19725518 66281
ONEWEB-0495             
1 54115U 22138C   24054.46284790  .00000097  00000+0  21043-3 0  9995
2 54115  87.9153 113.1378 0002244  89.8083 270.3307 13.19726160 66272
ONEWEB-0497             
1 54116U 22138D   24054.39967117  .00000057  00000+0  10919-3 0  9995
2 54116  87.9148 113.1436 0002005  94.3365 265.7997 13.19725234 66253
ONEWEB-0499             
1 54117U 22138E   24054.45810886  .00000039  00000+0  65110-4 0  9997
2 54117  87.9154 113.1280 0002533 103.5778 256.5637 13.19726619 66274
ONEWEB-0500             
1 54118U 22138F   24054.46127112  .00000039  00000+0  66303-4 0  9997
2 54118  87.9152 113.1269 0001895  95.2935 264.8414 13.19725501 66287
ONEWEB-0501             
1 54119U 22138G   24054.18802336  .00000048  00000+0  86850-4 0  9994
2 54119  87.9155 113.1815 0002398  87.8277 272.3130 13.19724477 66227
ONEWEB-0502             
1 54120U 22138H   24054.40124809  .00000080  00000+0  16673-3 0  9994
2 54120  87.9148 113.1298 0002275  93.3533 266.7860 13.19725788 66275
ONEWEB-0503             
1 54121U 22138J   24054.16275739  .00000063  00000+0  12377-3 0  9995
2 54121  87.9148 113.1846 0002154 110.2192 249.9173 13.19725381 66236
ONEWEB-0504             
1 54122U 22138K   24054.45337608  .00000011  00000+0 -52479-5 0  9995
2 54122  87.9152 113.1298 0002387  97.9383 262.2020 13.19725586 66285
ONEWEB-0505             
1 54123U 22138L   24054.45020493 -.00000020  00000+0 -82669-4 0  9991
2 54123  87.9150 113.1270 0002595  87.3582 272.7848 13.19725492 66267
ONEWEB-0506             
1 54124U 22138M   24053.66677326  .00000067  00000+0  13623-3 0  9999
2 54124  87.9150 113.2797 0002173  93.6342 266.5039 13.19725452 65289
ONEWEB-0507             
1 54125U 22138N   24053.68732345  .00000034  00000+0  51464-4 0  9995
2 54125  87.9159 113.2874 0002093  89.3555 270.7817 13.19725606 65332
ONEWEB-0508             
1 54126U 22138P   24053.68415115  .00000009  00000+0 -91515-5 0  9994
2 54126  87.9156 113.2847 0002379  87.3512 272.7893 13.19724496 65318
ONEWEB-0509             
1 54127U 22138Q   24054.11377631  .00000070  00000+0  14304-3 0  9990
2 54127  87.9149 113.1935 0002124  96.1732 263.9642 13.19725602 66212
ONEWEB-0510             
1 54128U 22138R   24054.44326930  .00004913  00000+0  12050-1 0  9997
2 54128  87.9131  82.5581 0001884  79.0607 281.0738 13.20745665 68675
ONEWEB-0511             
1 54129U 22138S   24054.48969930  .00000055  00000+0  10625-3 0  9996
2 54129  87.9152 113.1210 0002400 105.2195 254.9204 13.19725776 66290
ONEWEB-0512             
1 54130U 22138T   24054.40598828  .00000094  00000+0  20209-3 0  9996
2 54130  87.9155 113.1444 0002413  90.7872 269.3538 13.19725745 66250
ONEWEB-0513             
1 54131U 22138U   24054.45259576  .00000004  00000+0 -21941-4 0  9993
2 54131  87.9154 113.1325 0002630  96.0922 264.0510 13.19726874 66148
ONEWEB-0514             
1 54132U 22138V   24054.11851876  .00000095  00000+0  20462-3 0  9993
2 54132  87.9150 113.1990 0002028 100.6601 259.4760 13.19724697 66236
ONEWEB-0515             
1 54133U 22138W   24053.82459680 -.00000002  00000+0 -36424-4 0  9994
2 54133  87.9129  82.6627 0000810  91.4579 268.6647 13.20770485 67716
ONEWEB-0516             
1 54134U 22138X   24054.39651241  .00000008  00000+0 -13172-4 0  9995
2 54134  87.9155 113.1472 0001970  94.6973 265.4384 13.19725293 66273
ONEWEB-0517             
1 54135U 22138Y   24053.69362521 -.00000018  00000+0 -77188-4 0  9997
2 54135  87.9152 113.2804 0002317  96.9297 263.2099 13.19725182 65311
ONEWEB-0518             
1 54136U 22138Z   24054.16748141  .00000091  00000+0  19372-3 0  9996
2 54136  87.9156 113.1918 0002141 101.9245 258.2128 13.19726002 66248
ONEWEB-0519             
1 54137U 22138AA  24053.66203308  .00000048  00000+0  88209-4 0  9990
2 54137  87.9151 113.2829 0002459  97.9780 262.1632 13.19725963 65312
ONEWEB-0520             
1 54138U 22138AB  24053.69678080 -.00000010  00000+0 -57381-4 0  9995
2 54138  87.9150 113.2789 0002352  88.0887 272.0516 13.19725645 65305
ONEWEB-0521             
1 54139U 22138AC  24054.41230708  .00000127  00000+0  28362-3 0  9991
2 54139  87.9149 113.1307 0002116 107.6714 252.4650 13.19725501 66240
ONEWEB-0522             
1 54140U 22138AD  24054.39177298  .00000017  00000+0  10398-4 0  9993
2 54140  87.9148 113.1370 0001945  94.7642 265.3713 13.19725921 66256
ONEWEB-0523             
1 54141U 22138AE  24053.81197073  .00000104  00000+0  22363-3 0  9994
2 54141  87.9131  82.6923 0001313 120.7394 239.3869 13.20770358 67717
ONEWEB-0524             
1 54142U 22138AF  24054.10394962  .00000123  00000+0  27120-3 0  9991
2 54142  87.9130  82.6380 0001009  62.9178 297.2058 13.20771342 68621
ONEWEB-0525             
1 54143U 22138AG  24053.88001378  .00000152  00000+0  34608-3 0  9993
2 54143  87.9153 113.2444 0002241  92.4294 267.7095 13.19724945 65338
ONEWEB-0526             
1 54144U 22138AH  24053.68573118 -.00000002  00000+0 -38360-4 0  9994
2 54144  87.9151 113.2806 0001972  94.8410 265.2948 13.19724195 65286
ONEWEB-0529             
1 54145U 22138AJ  24053.68888924  .00000041  00000+0  70057-4 0  9999
2 54145  87.9158 113.2864 0002176  89.4136 270.7246 13.19724715 65303
ONEWEB-0531             
1 54146U 22138AK  24053.78671778  .00000161  00000+0  36375-3 0  9995
2 54146  87.9131  82.6914 0000823 110.2197 249.9025 13.20771388 67717
ONEWEB-0535             
1 54147U 22138AL  24054.40441044  .00000045  00000+0  79624-4 0  9993
2 54147  87.9147 113.1362 0001806 108.9476 251.1852 13.19725395 66287
ONEWEB-0536             
1 54148U 22138AM  24053.77409639  .00003466  00000+0  84906-2 0  9994
2 54148  87.9130  82.7443 0001613 122.7548 237.3741 13.20765494 67708
GSLV R/B                
1 54149U 22138AN  24054.49814234  .00002932  00000+0  30052-3 0  9997
2 54149  87.3765  55.2507 0022838 333.7597  26.2471 14.89937541 72704
ONEWEB-0527             
1 54642U 22166A   24053.94527315  .00000089  00000+0  18420-3 0  9992
2 54642  87.9212  52.2286 0001803  83.9920 276.1419 13.21825237 59873
ONEWEB-0528             
1 54643U 22166B   24053.95157985  .00000071  00000+0  14114-3 0  9993
2 54643  87.9217  52.2102 0002029  83.1274 277.0091 13.21825352 59886
ONEWEB-0539             
1 54644U 22166C   24054.44202875  .00000013  00000+0 -67471-6 0  9992
2 54644  87.9219  52.1132 0002086  91.3286 268.8086 13.21824943 60393
ONEWEB-0540             
1 54645U 22166D   24054.51221250 -.00000012  00000+0 -61503-4 0  9997
2 54645  87.9211  52.1244 0002221  89.9417 270.1971 13.21825138 60419
ONEWEB-0542             
1 54646U 22166E   24053.92162424  .00000029  00000+0  37691-4 0  9996
2 54646  87.9217  52.2173 0002155 101.6452 258.4924 13.21825318 59870
ONEWEB-0545             
1 54647U 22166F   24054.49407243  .00000075  00000+0  15009-3 0  9990
2 54647  87.9209  52.1352 0002391  93.8535 266.2872 13.21824917 60387
ONEWEB-0580             
1 54648U 22166G   24053.93738883  .00000114  00000+0  24449-3 0  9998
2 54648  87.9216  52.2062 0002196 103.2793 256.8586 13.21825406 59884
ONEWEB-0582             
1 54649U 22166H   24054.50984889  .00000023  00000+0  25288-4 0  9994
2 54649  87.9212  52.1333 0002274  86.0825 274.0569 13.21825445 60408
ONEWEB-0583             
1 54650U 22166J   24054.06670299 -.00000018  00000+0 -76166-4 0  9991
2 54650  87.9209  52.2238 0001782  76.1292 284.0040 13.21825454 60362
